NORAD_CAT_ID,OBJECT_NAME,OBJECT_TYPE,EPOCH,MEAN_MOTION,ECCENTRICITY,INCLINATION,RA_OF_ASC_NODE,ARG_OF_PERICENTER,MEAN_ANOMALY,BSTAR,MEAN_MOTION_DOT,MEAN_MOTION_DDOT,TLE_LINE0,TLE_LINE1,TLE_LINE2,SEMIMAJOR_AXIS,PERIOD,APOGEE,PERIGEE,DECAYED
49151.0,STARLINK-3102,PAYLOAD,2021-11-24 14:00:01,15.69746625,0.0003871,69.9979,285.9874,284.5029,235.1492,-0.00015155,-0.00018265,0.0,0 STARLINK-3102,1 49151U 21082X   21328.58334491 -.00018265  00000-0 -15155-3 0  9990,2 49151  69.9979 285.9874 0003871 284.5029 235.1492 15.69746625  3687,6737.759,91.735,362.232,357.016,0.0
49151.0,STARLINK-3102,PAYLOAD,2021-11-24 20:00:01,15.69727262,0.0003807,69.998,285.2847,280.1417,211.9091,0.00050715,0.00060718,0.0,0 STARLINK-3102,1 49151U 21082X   21328.83335648  .00060718  00000-0  50715-3 0  9992,2 49151  69.9980 285.2847 0003807 280.1417 211.9091 15.69727262 12564,6737.814,91.736,362.244,357.11400000000015,0.0
49151.0,STARLINK-3102,PAYLOAD,2021-11-24 22:00:00,15.69760823,0.000384,69.9981,285.0504,280.1837,322.5715,7.7736e-05,9.083e-05,0.0,0 STARLINK-3102,1 49151U 21082X   21328.91667824  .00009083  00000-0  77736-4 0  9996,2 49151  69.9981 285.0504 0003840 280.1837 322.5715 15.69760823  3692,6737.718000000003,91.734,362.171,356.996,0.0
49151.0,STARLINK-3102,PAYLOAD,2021-11-25 04:00:00,15.69744761,0.0003869,69.998,284.3477,285.538,289.5797,0.00026672,0.00031745,0.0,0 STARLINK-3102,1 49151U 21082X   21329.16667824  .00031745  00000-0  26672-3 0  9996,2 49151  69.9980 284.3477 0003869 285.5380 289.5797 15.69744761 12612,6737.764,91.735,362.236,357.022,0.0
49151.0,STARLINK-3102,PAYLOAD,2021-11-25 14:00:01,15.69767924,0.0003623,69.998,283.1764,284.1683,124.8865,-0.00061889,-0.00073511,0.0,0 STARLINK-3102,1 49151U 21082X   21329.58334491 -.00073511  00000-0 -61889-3 0  9991,2 49151  69.9980 283.1764 0003623 284.1683 124.8865 15.69767924  3687,6737.698,91.733,362.004,357.122,0.0
49151.0,STARLINK-3102,PAYLOAD,2021-11-25 20:00:01,15.69713283,0.0003477,69.9982,282.4739,281.3218,100.0749,0.00052292,0.00062587,0.0,0 STARLINK-3102,1 49151U 21082X   21329.83334491  .00062587  00000-0  52292-3 0  9996,2 49151  69.9982 282.4739 0003477 281.3218 100.0749 15.69713283 12724,6737.854,91.736,362.062,357.37699999999984,0.0
49151.0,STARLINK-3102,PAYLOAD,2021-11-26 04:00:00,15.69737727,0.000364,69.9981,281.5369,285.8535,178.6565,0.00016001,0.00018924,0.0,0 STARLINK-3102,1 49151U 21082X   21330.16667824  .00018924  00000-0  16001-3 0  9997,2 49151  69.9981 281.5369 0003640 285.8535 178.6565 15.69737727 12776,6737.784000000002,91.735,362.102,357.19699999999995,0.0
49151.0,STARLINK-3102,PAYLOAD,2021-11-26 14:00:01,15.69759238,0.0003561,69.9977,280.3654,283.3703,15.1145,-3.1302e-05,-3.949e-05,0.0,0 STARLINK-3102,1 49151U 21082X   21330.58335648 -.00003949  00000-0 -31302-4 0  9994,2 49151  69.9977 280.3654 0003561 283.3703  15.1145 15.69759238  3687,6737.723000000001,91.734,361.987,357.189,0.0
49151.0,STARLINK-3102,PAYLOAD,2021-11-26 22:00:00,15.69818864,0.0003529,69.9978,279.4284,280.7084,100.8379,-0.00078816,-0.00093532,0.0,0 STARLINK-3102,1 49151U 21082X   21330.91667824 -.00093532  00000-0 -78816-3 0  9992,2 49151  69.9978 279.4284 0003529 280.7084 100.8379 15.69818864  3685,6737.552,91.73,361.795,357.04,0.0
49151.0,STARLINK-3102,PAYLOAD,2021-11-27 04:00:00,15.69740876,0.0003409,69.9976,278.7256,286.0003,67.9477,-3.8472e-05,-4.801e-05,0.0,0 STARLINK-3102,1 49151U 21082X   21331.16667824 -.00004801  00000-0 -38472-4 0  9996,2 49151  69.9976 278.7256 0003409 286.0003  67.9477 15.69740876 12938,6737.775,91.735,361.937,357.343,0.0
49151.0,STARLINK-3102,PAYLOAD,2021-11-27 14:00:01,15.69745718,0.0003297,69.9977,277.5542,284.3662,263.4776,3.1462e-05,3.545e-05,0.0,0 STARLINK-3102,1 49151U 21082X   21331.58334491  .00003545  00000-0  31462-4 0  9997,2 49151  69.9977 277.5542 0003297 284.3662 263.4776 15.69745718  3701,6737.762,91.735,361.848,357.405,0.0
49151.0,STARLINK-3102,PAYLOAD,2021-11-27 20:00:01,15.6975992,0.0003268,69.9979,276.8517,279.6359,240.5463,0.00028655,0.00034149,0.0,0 STARLINK-3102,1 49151U 21082X   21331.83334491  .00034149  00000-0  28655-3 0  9998,2 49151  69.9979 276.8517 0003268 279.6359 240.5463 15.69759920 13031,6737.721,91.734,361.788,357.384,0.0
49151.0,STARLINK-3102,PAYLOAD,2021-11-27 22:00:00,15.69804803,0.0003395,69.9981,276.6173,279.9669,350.9905,-0.00048617,-0.00057983,0.0,0 STARLINK-3102,1 49151U 21082X   21331.91667824 -.00057983  00000-0 -48617-3 0  9999,2 49151  69.9981 276.6173 0003395 279.9669 350.9905 15.69804803  3675,6737.592,91.731,361.745,357.17,0.0
49151.0,STARLINK-3102,PAYLOAD,2021-11-28 04:00:00,15.69747638,0.0003552,69.9979,275.9145,285.4405,317.9013,-0.00023716,-0.00028427,0.0,0 STARLINK-3102,1 49151U 21082X   21332.16667824 -.00028427  00000-0 -23716-3 0  9991,2 49151  69.9979 275.9145 0003552 285.4405 317.9013 15.69747638 13090,6737.755999999999,91.734,362.014,357.228,0.0
49151.0,STARLINK-3102,PAYLOAD,2021-11-28 14:00:01,15.69724586,0.0003617,69.9975,274.7431,280.7181,156.5196,0.00019862,0.00023542,0.0,0 STARLINK-3102,1 49151U 21082X   21332.58334491  .00023542  00000-0  19862-3 0  9996,2 49151  69.9975 274.7431 0003617 280.7181 156.5196 15.69724586  3682,6737.821999999999,91.736,362.124,357.25,0.0
49151.0,STARLINK-3102,PAYLOAD,2021-11-28 20:00:01,15.69750853,0.0003562,69.9977,274.0403,278.0017,131.5677,0.00035767,0.00042707,0.0,0 STARLINK-3102,1 49151U 21082X   21332.83334491  .00042707  00000-0  35767-3 0  9990,2 49151  69.9977 274.0403 0003562 278.0017 131.5677 15.69750853 13193,6737.746999999999,91.734,362.012,357.212,0.0
49151.0,STARLINK-3102,PAYLOAD,2021-11-28 22:00:01,15.69779115,0.0003603,69.9978,273.806,278.5006,241.9117,-4.3028e-05,-5.352e-05,0.0,0 STARLINK-3102,1 49151U 21082X   21332.91668981 -.00005352  00000-0 -43028-4 0  9990,2 49151  69.9978 273.8060 0003603 278.5006 241.9117 15.69779115  3689,6737.666,91.733,361.959,357.103,0.0
49151.0,STARLINK-3102,PAYLOAD,2021-11-29 12:00:00,15.69800411,0.0003697,69.9975,272.1661,282.0235,293.8557,-0.00082553,-0.00097836,0.0,0 STARLINK-3102,1 49151U 21082X   21333.50001157 -.00097836  00000-0 -82553-3 0  9995,2 49151  69.9975 272.1661 0003697 282.0235 293.8557 15.69800411 13298,6737.605,91.731,361.961,356.97900000000016,0.0
49151.0,STARLINK-3102,PAYLOAD,2021-11-29 14:00:01,15.69736378,0.0003666,69.9977,271.9317,279.7065,46.9805,0.00015252,0.00018025,0.0,0 STARLINK-3102,1 49151U 21082X   21333.58334491  .00018025  00000-0  15252-3 0  9996,2 49151  69.9977 271.9317 0003666 279.7065  46.9805 15.69736378  3691,6737.788000000001,91.735,362.12300000000016,357.18300000000005,0.0
49151.0,STARLINK-3102,PAYLOAD,2021-11-29 22:00:00,15.69812824,0.0003693,69.9982,270.9947,278.2461,131.5498,-0.0010366,-0.00122501,0.0,0 STARLINK-3102,1 49151U 21082X   21333.91667824 -.00122501  00000-0 -10366-2 0  9999,2 49151  69.9982 270.9947 0003693 278.2461 131.5498 15.69812824 13364,6737.57,91.731,361.923,356.946,0.0
49151.0,STARLINK-3102,PAYLOAD,2021-11-30 10:00:00,15.6973402,0.0003606,69.9977,269.589,282.5851,71.8813,-0.00021089,-0.00025297,0.0,0 STARLINK-3102,1 49151U 21082X   21334.41667824 -.00025297  00000-0 -21089-3 0  9994,2 49151  69.9977 269.5890 0003606 282.5851  71.8813 15.69734020  3675,6737.795,91.735,362.09,357.23,0.0
49151.0,STARLINK-3102,PAYLOAD,2021-11-30 16:00:00,15.69682743,0.0003548,69.9978,268.8862,277.0698,49.7319,0.00081374,0.00097802,0.0,0 STARLINK-3102,1 49151U 21082X   21334.66667824  .00097802  00000-0  81374-3 0  9993,2 49151  69.9978 268.8862 0003548 277.0698  49.7319 15.69682743 13489,6737.941999999999,91.738,362.197,357.416,0.0
49151.0,STARLINK-3102,PAYLOAD,2021-11-30 22:00:00,15.69764973,0.0003558,69.9981,268.1834,277.28,21.8235,-0.00017258,-0.00020777,0.0,0 STARLINK-3102,1 49151U 21082X   21334.91667824 -.00020777  00000-0 -17258-3 0  9990,2 49151  69.9981 268.1834 0003558 277.2800  21.8235 15.69764973  3688,6737.706,91.733,361.969,357.1740000000001,0.0
49151.0,STARLINK-3102,PAYLOAD,2021-12-01 04:00:00,15.697530300000002,0.0003475,69.998,267.4806,283.0569,348.3978,-0.00020794,-0.00024966,0.0,0 STARLINK-3102,1 49151U 21082X   21335.16667824 -.00024966  00000-0 -20794-3 0  9991,2 49151  69.9980 267.4806 0003475 283.0569 348.3978 15.69753030 13564,6737.741,91.734,361.947,357.264,0.0
49151.0,STARLINK-3102,PAYLOAD,2021-12-01 14:00:01,15.69689387,0.0003249,69.9981,266.309,278.5626,186.8109,0.00050279,0.0006008999999999,0.0,0 STARLINK-3102,1 49151U 21082X   21335.58334491  .00060090  00000-0  50279-3 0  9995,2 49151  69.9981 266.3090 0003249 278.5626 186.8109 15.69689387  3697,6737.9230000000025,91.738,361.977,357.599,0.0
49151.0,STARLINK-3102,PAYLOAD,2021-12-01 20:00:01,15.69732281,0.0003204,69.9986,265.6063,276.2808,161.3873,0.00027214,0.00032376,0.0,0 STARLINK-3102,1 49151U 21082X   21335.83334491  .00032376  00000-0  27214-3 0  9992,2 49151  69.9986 265.6063 0003204 276.2808 161.3873 15.69732281 13668,6737.8,91.735,361.824,357.506,0.0
49151.0,STARLINK-3102,PAYLOAD,2021-12-01 22:00:00,15.69753891,0.0003258,69.9987,265.3721,277.2157,271.2256,-3.6159e-05,-4.527e-05,0.0,0 STARLINK-3102,1 49151U 21082X   21335.91667824 -.00004527  00000-0 -36159-4 0  9998,2 49151  69.9987 265.3721 0003258 277.2157 271.2256 15.69753891  3681,6737.738,91.734,361.798,357.408,0.0
49151.0,STARLINK-3102,PAYLOAD,2021-12-02 14:00:01,15.69771381,0.0003314,69.9986,263.4978,276.6168,78.1108,2.170800000000001e-05,2.382e-05,0.0,0 STARLINK-3102,1 49151U 21082X   21336.58334491  .00002382  00000-0  21708-4 0  9992,2 49151  69.9986 263.4978 0003314 276.6168  78.1108 15.69771381  3685,6737.688,91.733,361.786,357.32,0.0
49151.0,STARLINK-3102,PAYLOAD,2021-12-02 20:00:01,15.69780117,0.0003399,69.9988,262.7954,274.9447,52.1358,-0.00041221,-0.00049196,0.0,0 STARLINK-3102,1 49151U 21082X   21336.83334491 -.00049196  00000-0 -41221-3 0  9997,2 49151  69.9988 262.7954 0003399 274.9447  52.1358 15.69780117 13820,6737.663000000001,91.733,361.818,357.23800000000006,0.0
